[
    {
        "Altitude(m)": 611967.1427766066,
        "Argument of Periapsis(deg)": 0.0,
        "Eccentricity": 0.0,
        "Inclination(deg)": 60.0,
        "Latitude(deg)": 59.14005197957308,
        "Longitude(deg)": -88.90791462254955,
        "Mean Anomaly(deg)": -261.8182,
        "RAAN(deg)": 265.0,
        "Satellite Name": "Test1 1172",
        "Satellite Number": 1172,
        "Semi-Major Axis(m)": 6980739.136638005,
        "Time(s)": 0
    },
    {
        "Altitude(m)": 611934.3424352709,
        "Argument of Periapsis(deg)": 0.00010418945913296404,
        "Eccentricity": 0.0,
        "Inclination(deg)": 60.0,
        "Latitude(deg)": 58.9864138565842,
        "Longitude(deg)": -87.78467262618376,
        "Mean Anomaly(deg)": -261.1980938545382,
        "RAAN(deg)": 264.99957995086027,
        "Satellite Name": "Test1 1172",
        "Satellite Number": 1172,
        "Semi-Major Axis(m)": 6980739.136638005,
        "Time(s)": 10
    }
]